[
  {
    "COMMENT": "GENERATED VIA SPACETRACK.ORG API",
    "ORIGINATOR": "18 SPCS",
    "NORAD_CAT_ID": "46984",
    "OBJECT_NAME": "S6 MICHAEL FREILICH",
    "OBJECT_TYPE": "PAYLOAD",
    "CLASSIFICATION_TYPE": "U",
    "INTLDES": "20086A",
    "EPOCH": "2023-05-27 18:08:16",
    "EPOCH_MICROSECONDS": "727424",
    "MEAN_MOTION": "12.8092901",
    "ECCENTRICITY": "0.0007959",
    "INCLINATION": "66.0402",
    "RA_OF_ASC_NODE": "293.8907",
    "ARG_OF_PERICENTER": "270.0065",
    "MEAN_ANOMALY": "90.0038",
    "EPHEMERIS_TYPE": "0",
    "ELEMENT_SET_NO": "999",
    "REV_AT_EPOCH": "11733",
    "BSTAR": "-0.000077172",
    "MEAN_MOTION_DOT": "-0.00000079",
    "MEAN_MOTION_DDOT": "0",
    "FILE": "3918755",
    "TLE_LINE0": "0 S6 MICHAEL FREILICH",
    "TLE_LINE1": "1 46984U 20086A   23147.75574916 -.00000079  00000-0 -77172-4 0  9994",
    "TLE_LINE2": "2 46984  66.0402 293.8907 0007959 270.0065  90.0038 12.80929010117336",
    "OBJECT_ID": "2020-086A",
    "OBJECT_NUMBER": "46984",
    "SEMIMAJOR_AXIS": "7715.874",
    "PERIOD": "112.418",
    "APOGEE": "1343.880",
    "PERIGEE": "1331.598",
    "DECAYED": "0"
  },
  {
    "COMMENT": "GENERATED VIA SPACETRACK.ORG API",
    "ORIGINATOR": "18 SPCS",
    "NORAD_CAT_ID": "46984",
    "OBJECT_NAME": "S6 MICHAEL FREILICH",
    "OBJECT_TYPE": "PAYLOAD",
    "CLASSIFICATION_TYPE": "U",
    "INTLDES": "20086A",
    "EPOCH": "2023-05-28 03:30:25",
    "EPOCH_MICROSECONDS": "553376",
    "MEAN_MOTION": "12.80929072",
    "ECCENTRICITY": "0.0007957",
    "INCLINATION": "66.0403",
    "RA_OF_ASC_NODE": "293.08",
    "ARG_OF_PERICENTER": "270.0095",
    "MEAN_ANOMALY": "90.0008",
    "EPHEMERIS_TYPE": "0",
    "ELEMENT_SET_NO": "999",
    "REV_AT_EPOCH": "11738",
    "BSTAR": "0.000038762",
    "MEAN_MOTION_DOT": "-0.00000052",
    "MEAN_MOTION_DDOT": "0",
    "FILE": "3919252",
    "TLE_LINE0": "0 S6 MICHAEL FREILICH",
    "TLE_LINE1": "1 46984U 20086A   23148.14612909 -.00000052  00000-0  38762-4 0  9995",
    "TLE_LINE2": "2 46984  66.0403 293.0800 0007957 270.0095  90.0008 12.80929072117382",
    "OBJECT_ID": "2020-086A",
    "OBJECT_NUMBER": "46984",
    "SEMIMAJOR_AXIS": "7715.874",
    "PERIOD": "112.418",
    "APOGEE": "1343.878",
    "PERIGEE": "1331.599",
    "DECAYED": "0"
  },
  {
    "COMMENT": "GENERATED VIA SPACETRACK.ORG API",
    "ORIGINATOR": "18 SPCS",
    "NORAD_CAT_ID": "46984",
    "OBJECT_NAME": "S6 MICHAEL FREILICH",
    "OBJECT_TYPE": "PAYLOAD",
    "CLASSIFICATION_TYPE": "U",
    "INTLDES": "20086A",
    "EPOCH": "2023-05-28 11:00:08",
    "EPOCH_MICROSECONDS": "626752",
    "MEAN_MOTION": "12.80929096",
    "ECCENTRICITY": "0.0007949",
    "INCLINATION": "66.0415",
    "RA_OF_ASC_NODE": "292.4311",
    "ARG_OF_PERICENTER": "269.9112",
    "MEAN_ANOMALY": "90.0993",
    "EPHEMERIS_TYPE": "0",
    "ELEMENT_SET_NO": "999",
    "REV_AT_EPOCH": "11755",
    "BSTAR": "-0.0000097242",
    "MEAN_MOTION_DOT": "-0.00000063",
    "MEAN_MOTION_DDOT": "0",
    "FILE": "3919174",
    "TLE_LINE0": "0 S6 MICHAEL FREILICH",
    "TLE_LINE1": "1 46984U 20086A   23148.45843318 -.00000063  00000-0 -97242-5 0  9991",
    "TLE_LINE2": "2 46984  66.0415 292.4311 0007949 269.9112  90.0993 12.80929096117551",
    "OBJECT_ID": "2020-086A",
    "OBJECT_NUMBER": "46984",
    "SEMIMAJOR_AXIS": "7715.874",
    "PERIOD": "112.418",
    "APOGEE": "1343.872",
    "PERIGEE": "1331.605",
    "DECAYED": "0"
  },
  {
    "COMMENT": "GENERATED VIA SPACETRACK.ORG API",
    "ORIGINATOR": "18 SPCS",
    "NORAD_CAT_ID": "46984",
    "OBJECT_NAME": "S6 MICHAEL FREILICH",
    "OBJECT_TYPE": "PAYLOAD",
    "CLASSIFICATION_TYPE": "U",
    "INTLDES": "20086A",
    "EPOCH": "2023-05-28 20:22:17",
    "EPOCH_MICROSECONDS": "445792",
    "MEAN_MOTION": "12.80929205",
    "ECCENTRICITY": "0.0007963",
    "INCLINATION": "66.0415",
    "RA_OF_ASC_NODE": "291.6204",
    "ARG_OF_PERICENTER": "269.9412",
    "MEAN_ANOMALY": "90.069",
    "EPHEMERIS_TYPE": "0",
    "ELEMENT_SET_NO": "999",
    "REV_AT_EPOCH": "11747",
    "BSTAR": "0.00010459",
    "MEAN_MOTION_DOT": "-0.00000037",
    "MEAN_MOTION_DDOT": "0",
    "FILE": "3919546",
    "TLE_LINE0": "0 S6 MICHAEL FREILICH",
    "TLE_LINE1": "1 46984U 20086A   23148.84881303 -.00000037  00000-0  10459-3 0  9993",
    "TLE_LINE2": "2 46984  66.0415 291.6204 0007963 269.9412  90.0690 12.80929205117479",
    "OBJECT_ID": "2020-086A",
    "OBJECT_NUMBER": "46984",
    "SEMIMAJOR_AXIS": "7715.873",
    "PERIOD": "112.418",
    "APOGEE": "1343.882",
    "PERIGEE": "1331.594",
    "DECAYED": "0"
  },
  {
    "COMMENT": "GENERATED VIA SPACETRACK.ORG API",
    "ORIGINATOR": "18 SPCS",
    "NORAD_CAT_ID": "46984",
    "OBJECT_NAME": "S6 MICHAEL FREILICH",
    "OBJECT_TYPE": "PAYLOAD",
    "CLASSIFICATION_TYPE": "U",
    "INTLDES": "20086A",
    "EPOCH": "2023-05-29 13:14:09",
    "EPOCH_MICROSECONDS": "331296",
    "MEAN_MOTION": "12.80929109",
    "ECCENTRICITY": "0.000797",
    "INCLINATION": "66.0415",
    "RA_OF_ASC_NODE": "290.1608",
    "ARG_OF_PERICENTER": "269.8351",
    "MEAN_ANOMALY": "90.1751",
    "EPHEMERIS_TYPE": "0",
    "ELEMENT_SET_NO": "999",
    "REV_AT_EPOCH": "11756",
    "BSTAR": "-0.000013469",
    "MEAN_MOTION_DOT": "-0.00000064",
    "MEAN_MOTION_DDOT": "0",
    "FILE": "3920065",
    "TLE_LINE0": "0 S6 MICHAEL FREILICH",
    "TLE_LINE1": "1 46984U 20086A   23149.55149689 -.00000064  00000-0 -13469-4 0  9992",
    "TLE_LINE2": "2 46984  66.0415 290.1608 0007970 269.8351  90.1751 12.80929109117562",
    "OBJECT_ID": "2020-086A",
    "OBJECT_NUMBER": "46984",
    "SEMIMAJOR_AXIS": "7715.874",
    "PERIOD": "112.418",
    "APOGEE": "1343.888",
    "PERIGEE": "1331.589",
    "DECAYED": "0"
  },
  {
    "COMMENT": "GENERATED VIA SPACETRACK.ORG API",
    "ORIGINATOR": "18 SPCS",
    "NORAD_CAT_ID": "46984",
    "OBJECT_NAME": "S6 MICHAEL FREILICH",
    "OBJECT_TYPE": "PAYLOAD",
    "CLASSIFICATION_TYPE": "U",
    "INTLDES": "20086A",
    "EPOCH": "2023-05-29 16:59:00",
    "EPOCH_MICROSECONDS": "863232",
    "MEAN_MOTION": "12.80929039",
    "ECCENTRICITY": "0.0007976",
    "INCLINATION": "66.0404",
    "RA_OF_ASC_NODE": "289.8367",
    "ARG_OF_PERICENTER": "269.8725",
    "MEAN_ANOMALY": "90.1376",
    "EPHEMERIS_TYPE": "0",
    "ELEMENT_SET_NO": "999",
    "REV_AT_EPOCH": "11771",
    "BSTAR": "-0.000010423",
    "MEAN_MOTION_DOT": "-0.00000063",
    "MEAN_MOTION_DDOT": "0",
    "FILE": "3920270",
    "TLE_LINE0": "0 S6 MICHAEL FREILICH",
    "TLE_LINE1": "1 46984U 20086A   23149.70764888 -.00000063  00000-0 -10423-4 0  9999",
    "TLE_LINE2": "2 46984  66.0404 289.8367 0007976 269.8725  90.1376 12.80929039117710",
    "OBJECT_ID": "2020-086A",
    "OBJECT_NUMBER": "46984",
    "SEMIMAJOR_AXIS": "7715.874",
    "PERIOD": "112.418",
    "APOGEE": "1343.893",
    "PERIGEE": "1331.585",
    "DECAYED": "0"
  },
  {
    "COMMENT": "GENERATED VIA SPACETRACK.ORG API",
    "ORIGINATOR": "18 SPCS",
    "NORAD_CAT_ID": "46984",
    "OBJECT_NAME": "S6 MICHAEL FREILICH",
    "OBJECT_TYPE": "PAYLOAD",
    "CLASSIFICATION_TYPE": "U",
    "INTLDES": "20086A",
    "EPOCH": "2023-05-29 18:51:26",
    "EPOCH_MICROSECONDS": "629632",
    "MEAN_MOTION": "12.80929025",
    "ECCENTRICITY": "0.0007977",
    "INCLINATION": "66.0404",
    "RA_OF_ASC_NODE": "289.6745",
    "ARG_OF_PERICENTER": "269.8715",
    "MEAN_ANOMALY": "90.1387",
    "EPHEMERIS_TYPE": "0",
    "ELEMENT_SET_NO": "999",
    "REV_AT_EPOCH": "11759",
    "BSTAR": "-0.000020165",
    "MEAN_MOTION_DOT": "-0.00000066",
    "MEAN_MOTION_DDOT": "0",
    "FILE": "3920354",
    "TLE_LINE0": "0 S6 MICHAEL FREILICH",
    "TLE_LINE1": "1 46984U 20086A   23149.78572488 -.00000066  00000-0 -20165-4 0  9997",
    "TLE_LINE2": "2 46984  66.0404 289.6745 0007977 269.8715  90.1387 12.80929025117591",
    "OBJECT_ID": "2020-086A",
    "OBJECT_NUMBER": "46984",
    "SEMIMAJOR_AXIS": "7715.874",
    "PERIOD": "112.418",
    "APOGEE": "1343.894",
    "PERIGEE": "1331.584",
    "DECAYED": "0"
  },
  {
    "COMMENT": "GENERATED VIA SPACETRACK.ORG API",
    "ORIGINATOR": "18 SPCS",
    "NORAD_CAT_ID": "46984",
    "OBJECT_NAME": "S6 MICHAEL FREILICH",
    "OBJECT_TYPE": "PAYLOAD",
    "CLASSIFICATION_TYPE": "U",
    "INTLDES": "20086A",
    "EPOCH": "2023-05-30 11:43:18",
    "EPOCH_MICROSECONDS": "523776",
    "MEAN_MOTION": "12.80928987",
    "ECCENTRICITY": "0.0007972",
    "INCLINATION": "66.0404",
    "RA_OF_ASC_NODE": "288.215",
    "ARG_OF_PERICENTER": "269.8599",
    "MEAN_ANOMALY": "90.1503",
    "EPHEMERIS_TYPE": "0",
    "ELEMENT_SET_NO": "999",
    "REV_AT_EPOCH": "11768",
    "BSTAR": "-0.00004511",
    "MEAN_MOTION_DOT": "-0.00000071",
    "MEAN_MOTION_DDOT": "0",
    "FILE": "3920920",
    "TLE_LINE0": "0 S6 MICHAEL FREILICH",
    "TLE_LINE1": "1 46984U 20086A   23150.48840884 -.00000071  00000-0 -45110-4 0  9997",
    "TLE_LINE2": "2 46984  66.0404 288.2150 0007972 269.8599  90.1503 12.80928987117687",
    "OBJECT_ID": "2020-086A",
    "OBJECT_NUMBER": "46984",
    "SEMIMAJOR_AXIS": "7715.874",
    "PERIOD": "112.418",
    "APOGEE": "1343.890",
    "PERIGEE": "1331.588",
    "DECAYED": "0"
  }
]